SHIYAN-12 02 (SY-12 02) 
1 50322U 21129B   26046.54748392  .00000154  00000+0  00000+0 0  9995
2 50322   3.3592  81.6300 0003483 217.5063  78.7196  1.00085500 15278
TJS-9                   
1 50574U 21135A   26046.56767736 -.00000294  00000+0  00000+0 0  9992
2 50574   0.0303 243.7605 0004369 272.8298 330.5371  1.00274976 15213
GOES 18                 
1 51850U 22021A   26046.51333709  .00000000  00000+0  00000+0 0  9993
2 51850   0.0222 102.0595 0000608 289.0739 162.1935  1.00269821  5372
ZHONGXING-6D            
1 52255U 22038A   26046.24900020 -.00000349  00000+0  00000+0 0  9994
2 52255   0.0868 261.8354 0002557  42.9816  55.1331  1.00270320 14201
NILESAT 301             
1 52817U 22061A   26046.28725200 -.00000053  00000+0  00000+0 0  9995
2 52817   0.0521 338.0055 0005646   0.7172 262.9640  1.00271777 13516
CMS-02 (GSAT 24)        
1 52903U 22067A   26046.55693065 -.00000159  00000+0  00000+0 0  9997
2 52903   0.0135  94.2845 0003612 199.2208 135.5033  1.00270097 13386
MEASAT 3D               
1 52904U 22067B   26046.48725030  .00000000  00000+0  00000+0 0  9992
2 52904   0.0149 330.5374 0003451 356.2968  85.5815  1.00268122 13427
SES-22                  
1 52933U 22071A   26046.29900936  .00000109  00000+0  00000+0 0  9998
2 52933   0.0190  86.7941 0000915 250.9083 136.2294  1.00273675  6308
WFOV (USA 332)          
1 52940U 22073A   26046.56153539 -.00000358  00000+0  00000+0 0  9994
2 52940   3.3969  80.1231 0001038 184.1543 202.6709  1.00268233 13156
TIANLIAN 2-03           
1 53100U 22078A   26046.54254391  .00000076  00000+0  00000+0 0  9990
2 53100   0.3627  71.8107 0003556 242.6572  36.9340  1.00272773 13323
SBIRS GEO-6 (USA 336)   
1 53355U 22092A   26046.56802403 -.00000284  00000+0  00000+0 0  9995
2 53355   3.4672 315.5737 0002029  10.4059 163.0595  1.00271775 13012
EUTELSAT KONNECT VHTS   
1 53765U 22110A   26046.39832986  .00000021  00000+0  00000+0 0  9999
2 53765   0.0577 101.9038 0002857 198.9031 350.6826  1.00269288  5610
ZHONGXING-1E            
1 53813U 22112A   26046.55658397 -.00000145  00000+0  00000+0 0  9993
2 53813   0.0414 262.4009 0003604  30.9406 133.9978  1.00271990 12629
SES-20                  
1 53960U 22123A   26046.52001046 -.00000096  00000+0  00000+0 0  9993
2 53960   0.0132 100.8310 0001507 331.9818 156.7865  1.00270103 12319
SES-21                  
1 53961U 22123B   26046.51455043  .00000074  00000+0  00000+0 0  9998
2 53961   0.0257  51.7330 0001003 270.7922 237.1984  1.00270016  5996
GALAXY 33 (G-33)        
1 54026U 22128A   26046.51411710  .00000084  00000+0  00000+0 0  9990
2 54026   0.0038 126.3945 0001650 207.6273 223.5629  1.00272145 12520
GALAXY 34 (G-34)        
1 54027U 22128B   26046.51489709  .00000063  00000+0  00000+0 0  9991
2 54027   0.0082 100.8327 0001523 222.3380 238.6816  1.00273414 12696
ANGOSAT 2               
1 54033U 22131A   26044.90476453  .00000141  00000+0  00000+0 0  9992
2 54033   0.0147 181.2044 0000789 275.7763  35.6408  1.00271714 12248
EUTELSAT HOTBIRD 13F    
1 54048U 22134A   26046.54306391  .00000092  00000+0  00000+0 0  9991
2 54048   0.0585 289.1435 0002196  78.2418 346.6384  1.00273004 12151
LDPE-2                  
1 54219U 22144A   26046.55710398 -.00000289  00000+0  00000+0 0  9998
2 54219   5.3453  64.4509 0000964 311.9017  53.6293  1.01014040 10620
EUTELSAT HOTBIRD 13G    
1 54225U 22146A   26046.28169986  .00000091  00000+0  00000+0 0  9998
2 54225   0.0533 242.6470 0001978 292.9782  84.0408  1.00270761  6240
ZHONGXING-19            
1 54230U 22148A   26046.50146369 -.00000075  00000+0  00000+0 0  9994
2 54230   0.0438 273.0780 0007762 339.8893 236.4337  1.00272138 12165
GALAXY 31 (G-31)        
1 54243U 22153A   26046.51645711  .00000018  00000+0  00000+0 0  9996
2 54243   0.0331 235.2601 0001392 107.5504 227.6124  1.00271720  5912
GALAXY 32 (G-32)        
1 54244U 22153B   26046.52243714 -.00000169  00000+0  00000+0 0  9993
2 54244   0.0183  81.2452 0002832 268.0435 253.2886  1.00270613 11925
EUTELSAT 10B            
1 54259U 22157A   26046.54228391  .00000074  00000+0  00000+0 0  9993
2 54259   0.0559 102.4381 0002166 336.8945 271.4275  1.00279777 11806
GALAXY 35 (G-35)        
1 54741U 22170A   26046.52200381 -.00000158  00000+0  00000+0 0  9995
2 54741   0.0162 118.5833 0001794 210.9085 270.8338  1.00272598 11677
GALAXY 36 (G-36)        
1 54742U 22170B   26046.52287048 -.00000180  00000+0  00000+0 0  9996
2 54742   0.0134 152.2730 0001778 243.9087 208.5603  1.00271255 11557
METEOSAT-12 (MTG-I1)    
1 54743U 22170C   26046.28725200 -.00000003  00000+0  00000+0 0  9991
2 54743   0.7217  26.4658 0001781 277.6421 304.2228  1.00272170 11754
SHIJIAN-23 (SJ-23)      
1 55131U 23002A   26046.77962876 -.00000356  00000+0  00000+0 0  9995
2 55131   3.4040  79.8912 0005703 259.0472 203.8005  1.00497270 11299
APSTAR-6E               
1 55239U 23005A   26046.56698402 -.00000313  00000+0  00000+0 0  9998
2 55239   0.0545 259.5698 0001980  35.1306 188.9669  1.00272207 17477
USA 342                 
1 55263U 23008A   26044.26307944  .00000000  00000+0  00000+0 0  9993
2 55263   0.0037 114.3125 0000419 145.1143   2.5077  1.00271034 11273
LDPE-3A                 
1 55264U 23008B   26046.51663044 -.00000029  00000+0  00000+0 0  9992
2 55264   2.0005  82.7425 0000561 340.8913 147.4360  1.00566698 10602
ELEKTRO-L 4             
1 55506U 23016A   26046.13605935 -.00000053  00000+0  00000+0 0  9990
2 55506   0.0562  96.0011 0002135 183.3968  80.5524  1.00270271 11110
AMAZONAS NEXUS          
1 55508U 23017A   26046.52841718 -.00000278  00000+0  00000+0 0  9996
2 55508   0.0360  49.8231 0004273 305.7978 279.1218  1.00269922  5822
ZHONGXING-26            
1 55686U 23023A   26044.99624354 -.00000348  00000+0  00000+0 0  9992
2 55686   0.0620  74.5219 0002808 320.0771 233.1641  1.00269079 10999
LUCH-5X (OLYMP-K 2)     
1 55841U 23031A   26046.75852221  .00000038  00000+0  00000+0 0  9991
2 55841   0.0289  96.4558 0001189  87.4373 296.8853  1.00271672 10729
GAOFEN-13 02            
1 55912U 23036A   26045.57801288 -.00000212  00000+0  00000+0 0  9996
2 55912   1.0405 345.4861 0004835 335.0601 180.3509  1.00270114 10860
SES-18                  
1 55970U 23038A   26046.52001046 -.00000096  00000+0  00000+0 0  9992
2 55970   0.0552 276.5929 0002329  22.0654 290.9412  1.00271265 10883
SES-19                  
1 55971U 23038B   26046.51377043  .00000092  00000+0  00000+0 0  9990
2 55971   0.0590 281.9288 0001552  56.4336 217.1981  1.00271231 10862
INTELSAT 40E (IS-40E)   
1 56174U 23052A   26046.52243714 -.00000169  00000+0  00000+0 0  9996
2 56174   0.0101 121.3287 0000605 203.0087 278.2445  1.00270932 10605
VIASAT-3 F1             
1 56370U 23060A   26046.52287048 -.00000180  00000+0  00000+0 0  9994
2 56370   0.0077 103.9052 0000228  43.8943  97.0202  1.00266680 10213
ARCTURUS                
1 56371U 23060B   26046.58394169 -.00000058  00000+0  00000+0 0  9998
2 56371   2.4614  81.5082 0000891 333.0673  13.6717  1.00269745 10233
GS-1                    
1 56372U 23060C   26046.48534362 -.00000153  00000+0  00000+0 0  9995
2 56372   2.4121  81.3065 0004773 259.0588  61.3083  1.00301930  6314
BEIDOU-3 G4             
1 56564U 23066A   26046.56307802 -.00000106  00000+0  00000+0 0  9998
2 56564   0.6814 308.5080 0001889 175.4862  24.2776  1.00272909 10177
ARABSAT-7B (BADR-8)     
1 56757U 23075A   26046.54566392  .00000149  00000+0  00000+0 0  9997
2 56757   0.0773  32.1613 0005281 316.8999  18.9095  1.00271538  9891
NVS-01 (IRNSS-1J)       
1 56759U 23076A   26046.56611735 -.00000333  00000+0  00000+0 0  9990
2 56759   2.4611 249.2473 0007881  37.7439 191.8650  1.00274393  9891
NUSANTARA TIGA (SATRIA) 
1 57045U 23086A   26046.56941069 -.00000231  00000+0  00000+0 0  9993
2 57045   0.0528 300.9402 0006014  17.1153 178.4788  1.00269781  8549
H2SAT (HEINRICH HERTZ)  
1 57213U 23093A   26046.28725200  .00000006  00000+0  00000+0 0  9993
2 57213   0.0301 249.6982 0001169 232.8614 126.8307  1.00270726  9693
SYRACUSE 4B             
1 57214U 23093B   26046.39650985 -.00000049  00000+0  00000+0 0  9991
2 57214   0.0050 139.7167 0000344 277.0886 224.8286  1.00272379  5748
JUPITER 3 (ECHOSTAR 24) 
1 57479U 23108A   26045.86195866 -.00000145  00000+0  00000+0 0  9991
2 57479   0.0122 102.5454 0001164 214.8357  42.5842  1.00271815  9427
GALAXY 37 (G-37)        
1 57493U 23112A   26046.51533043  .00000000  00000+0  00000+0 0  9997
2 57493   0.0259 110.3411 0001926 225.8423 227.8587  1.00270128  9325
LUDI TANCE-4 01A        
1 57624U 23120A   26046.41557661 -.00000184  00000+0  00000+0 0  9997
2 57624  15.1891 196.9830 0005692 102.2858  85.4461  1.00272633  9321
TJS-10                  
1 58204U 23169A   26046.77740074 -.00000266  00000+0  00000+0 0  9997
2 58204   2.2294  82.0032 0011146 230.8469 264.1743  0.99772612  8323
ZHONGXING-6E            
1 58253U 23172A   26046.60238008 -.00000357  00000+0  00000+0 0  9997
2 58253   0.0410 266.4431 0002495  65.2000 146.3301  1.00270370  8443
YAOGAN-41               
1 58582U 23197A   26044.35407992 -.00000351  00000+0  00000+0 0  9993
2 58582   3.3589 311.3258 0009560 183.1765 259.5674  1.00269205  8081
OVZON-3                 
1 58698U 24003A   26046.55225063  .00000057  00000+0  00000+0 0  9991
2 58698   0.0149 149.4557 0000263 230.8122  23.7725  1.00269044  6217
INSAT-3DS               
1 58990U 24033A   26046.55675730 -.00000151  00000+0  00000+0 0  9995
2 58990   0.0956 265.6154 0002250  88.4209  74.0066  1.00270829 45845
MERAH PUTIH 2           
1 58995U 24035A   26046.55009830 -.00000353  00000+0  00000+0 0  9998
2 58995   0.0174 135.8722 0000985 204.9674 115.6853  1.00272706  7373
TJS-11                  
1 59020U 24037A   26046.56955223 -.00000359  00000+0  00000+0 0  9993
2 59020   4.3631 325.5934 0005788  29.2917 116.0905  1.00273110  7367
